STARLINK-36913          
1 68031U 26040S   26090.25002315 -.01816301  00000+0 -33125-1 0  9991
2 68031  97.2851  39.6945 0001526 115.0916 278.8942 15.52778780  5897
STARLINK-36935          
1 68032U 26040T   26088.10506250  .00284329  00000+0  18378-2 0  9990
2 68032  97.2868  37.5430 0001893 100.6895 259.4584 15.75272592  4414
STARLINK-36947          
1 68033U 26040U   26090.14246203 -.00224875  00000+0 -16316-2 0  9999
2 68033  97.2872  39.6695 0001558 326.4554  33.6612 15.73950568  4737
STARLINK-36939          
1 68034U 26040V   26090.25002315 -.01806485  00000+0 -30730-1 0  9995
2 68034  97.2856  39.7181 0001473  93.0587 355.5352 15.54667798  5894
STARLINK-36943          
1 68035U 26040W   26089.66668981  .00008484  00000+0  57736-4 0  9994
2 68035  97.2853  39.1846 0001431  92.0994 115.5040 15.75172450  5852
STARLINK-36906          
1 68036U 26040X   26090.25002315 -.01803031  00000+0 -32302-1 0  9998
2 68036  97.2850  39.7058 0001372  99.0792 319.8653 15.53245989  5895
STARLINK-36388          
1 68037U 26040Y   26089.12221551  .00345166  00000+0  22192-2 0  9992
2 68037  97.2860  38.6097 0002488  99.3643 260.7904 15.75226231  4575
STARLINK-36895          
1 68038U 26040Z   26090.00002315 -.01971476  00000+0 -15440-1 0  9996
2 68038  97.2859  39.5237 0001887 107.4165 175.0741 15.74915468  5857
STARLINK-36373          
1 68039U 26040AA  26090.25002315 -.01810730  00000+0 -33323-1 0  9999
2 68039  97.2851  39.6961 0001668 108.0713 288.9109 15.52517050  5840
STARLINK-36711          
1 68040U 26041A   26090.08763534  .00157134  00000+0  10074-2 0  9998
2 68040  53.1575 315.5819 0000914  88.1145 271.9980 15.75303969  4591
STARLINK-36825          
1 68041U 26041B   26090.25002315  .00061334  00000+0  40223-3 0  9997
2 68041  53.1584 314.1430 0000813 108.1746  42.3753 15.75190620  5849
STARLINK-36925          
1 68042U 26041C   26090.21485372  .00244338  00000+0  15464-2 0  9997
2 68042  53.1566 314.9531 0000413  76.7088 283.3978 15.75329043  4618
STARLINK-36902          
1 68043U 26041D   26090.00002315 -.00014575  00000+0 -91117-4 0  9998
2 68043  53.1587 315.4933 0001133  45.2195  75.3055 15.75226603  5809
STARLINK-36966          
1 68044U 26041E   26089.13173614  .00214408  00000+0  13644-2 0  9994
2 68044  53.1585 320.2848 0000931  62.6191 297.4924 15.75294349  4444
STARLINK-36864          
1 68045U 26041F   26090.01965002  .00220992  00000+0  14034-2 0  9993
2 68045  53.1592 315.8682 0000928  93.6800 266.4326 15.75321172  4588
STARLINK-36321          
1 68046U 26041G   26090.24620133  .00263754  00000+0  16649-2 0  9999
2 68046  53.1569 314.4256 0000655  44.6594 315.4479 15.75331398  4628
