[{"OBJECT_NAME":"STARLINK-36913","OBJECT_ID":"2026-040S","EPOCH":"2026-03-31T06:00:02.000160","MEAN_MOTION":15.5277878,"ECCENTRICITY":0.00015266,"INCLINATION":97.2851,"RA_OF_ASC_NODE":39.6945,"ARG_OF_PERICENTER":115.0916,"MEAN_ANOMALY":278.8942,"EPHEMERIS_TYPE":0,"CLASSIFICATION_TYPE":"U","NORAD_CAT_ID":68031,"ELEMENT_SET_NO":999,"REV_AT_EPOCH":589,"BSTAR":-0.033124809,"MEAN_MOTION_DOT":-0.01816301,"MEAN_MOTION_DDOT":0},{"OBJECT_NAME":"STARLINK-36935","OBJECT_ID":"2026-040T","EPOCH":"2026-03-29T02:31:17.400000","MEAN_MOTION":15.75272592,"ECCENTRICITY":0.00018932,"INCLINATION":97.2868,"RA_OF_ASC_NODE":37.543,"ARG_OF_PERICENTER":100.6895,"MEAN_ANOMALY":259.4584,"EPHEMERIS_TYPE":0,"CLASSIFICATION_TYPE":"U","NORAD_CAT_ID":68032,"ELEMENT_SET_NO":999,"REV_AT_EPOCH":441,"BSTAR":0.0018377909,"MEAN_MOTION_DOT":0.00284329,"MEAN_MOTION_DDOT":0},{"OBJECT_NAME":"STARLINK-36947","OBJECT_ID":"2026-040U","EPOCH":"2026-03-31T03:25:08.719392","MEAN_MOTION":15.73950568,"ECCENTRICITY":0.00015585,"INCLINATION":97.2872,"RA_OF_ASC_NODE":39.6695,"ARG_OF_PERICENTER":326.4554,"MEAN_ANOMALY":33.6612,"EPHEMERIS_TYPE":0,"CLASSIFICATION_TYPE":"U","NORAD_CAT_ID":68033,"ELEMENT_SET_NO":999,"REV_AT_EPOCH":473,"BSTAR":-0.0016316238,"MEAN_MOTION_DOT":-0.00224875,"MEAN_MOTION_DDOT":0},{"OBJECT_NAME":"STARLINK-36939","OBJECT_ID":"2026-040V","EPOCH":"2026-03-31T06:00:02.000160","MEAN_MOTION":15.54667798,"ECCENTRICITY":0.00014737,"INCLINATION":97.2856,"RA_OF_ASC_NODE":39.7181,"ARG_OF_PERICENTER":93.0587,"MEAN_ANOMALY":355.5352,"EPHEMERIS_TYPE":0,"CLASSIFICATION_TYPE":"U","NORAD_CAT_ID":68034,"ELEMENT_SET_NO":999,"REV_AT_EPOCH":589,"BSTAR":-0.030729597,"MEAN_MOTION_DOT":-0.01806485,"MEAN_MOTION_DDOT":0},{"OBJECT_NAME":"STARLINK-36943","OBJECT_ID":"2026-040W","EPOCH":"2026-03-30T16:00:01.999584","MEAN_MOTION":15.7517245,"ECCENTRICITY":0.00014319,"INCLINATION":97.2853,"RA_OF_ASC_NODE":39.1846,"ARG_OF_PERICENTER":92.0994,"MEAN_ANOMALY":115.504,"EPHEMERIS_TYPE":0,"CLASSIFICATION_TYPE":"U","NORAD_CAT_ID":68035,"ELEMENT_SET_NO":999,"REV_AT_EPOCH":585,"BSTAR":5.7735855e-5,"MEAN_MOTION_DOT":8.484e-5,"MEAN_MOTION_DDOT":0},{"OBJECT_NAME":"STARLINK-36906","OBJECT_ID":"2026-040X","EPOCH":"2026-03-31T06:00:02.000160","MEAN_MOTION":15.53245989,"ECCENTRICITY":0.00013723,"INCLINATION":97.285,"RA_OF_ASC_NODE":39.7058,"ARG_OF_PERICENTER":99.0792,"MEAN_ANOMALY":319.8653,"EPHEMERIS_TYPE":0,"CLASSIFICATION_TYPE":"U","NORAD_CAT_ID":68036,"ELEMENT_SET_NO":999,"REV_AT_EPOCH":589,"BSTAR":-0.032301587,"MEAN_MOTION_DOT":-0.01803031,"MEAN_MOTION_DDOT":0},{"OBJECT_NAME":"STARLINK-36388","OBJECT_ID":"2026-040Y","EPOCH":"2026-03-30T02:55:59.420064","MEAN_MOTION":15.75226231,"ECCENTRICITY":0.00024887,"INCLINATION":97.286,"RA_OF_ASC_NODE":38.6097,"ARG_OF_PERICENTER":99.3643,"MEAN_ANOMALY":260.7904,"EPHEMERIS_TYPE":0,"CLASSIFICATION_TYPE":"U","NORAD_CAT_ID":68037,"ELEMENT_SET_NO":999,"REV_AT_EPOCH":457,"BSTAR":0.002219243,"MEAN_MOTION_DOT":0.00345166,"MEAN_MOTION_DDOT":0},{"OBJECT_NAME":"STARLINK-36895","OBJECT_ID":"2026-040Z","EPOCH":"2026-03-31T00:00:02.000160","MEAN_MOTION":15.74915468,"ECCENTRICITY":0.00018875,"INCLINATION":97.2859,"RA_OF_ASC_NODE":39.5237,"ARG_OF_PERICENTER":107.4165,"MEAN_ANOMALY":175.0741,"EPHEMERIS_TYPE":0,"CLASSIFICATION_TYPE":"U","NORAD_CAT_ID":68038,"ELEMENT_SET_NO":999,"REV_AT_EPOCH":585,"BSTAR":-0.015439911,"MEAN_MOTION_DOT":-0.01971476,"MEAN_MOTION_DDOT":0},{"OBJECT_NAME":"STARLINK-36373","OBJECT_ID":"2026-040AA","EPOCH":"2026-03-31T06:00:02.000160","MEAN_MOTION":15.5251705,"ECCENTRICITY":0.00016682,"INCLINATION":97.2851,"RA_OF_ASC_NODE":39.6961,"ARG_OF_PERICENTER":108.0713,"MEAN_ANOMALY":288.9109,"EPHEMERIS_TYPE":0,"CLASSIFICATION_TYPE":"U","NORAD_CAT_ID":68039,"ELEMENT_SET_NO":999,"REV_AT_EPOCH":584,"BSTAR":-0.033323182,"MEAN_MOTION_DOT":-0.0181073,"MEAN_MOTION_DDOT":0},{"OBJECT_NAME":"STARLINK-36711","OBJECT_ID":"2026-041A","EPOCH":"2026-03-31T02:06:11.693376","MEAN_MOTION":15.75303969,"ECCENTRICITY":9.14e-5,"INCLINATION":53.1575,"RA_OF_ASC_NODE":315.5819,"ARG_OF_PERICENTER":88.1145,"MEAN_ANOMALY":271.998,"EPHEMERIS_TYPE":0,"CLASSIFICATION_TYPE":"U","NORAD_CAT_ID":68040,"ELEMENT_SET_NO":999,"REV_AT_EPOCH":459,"BSTAR":0.0010074333,"MEAN_MOTION_DOT":0.00157134,"MEAN_MOTION_DDOT":0},{"OBJECT_NAME":"STARLINK-36825","OBJECT_ID":"2026-041B","EPOCH":"2026-03-31T06:00:02.000160","MEAN_MOTION":15.7519062,"ECCENTRICITY":8.138e-5,"INCLINATION":53.1584,"RA_OF_ASC_NODE":314.143,"ARG_OF_PERICENTER":108.1746,"MEAN_ANOMALY":42.3753,"EPHEMERIS_TYPE":0,"CLASSIFICATION_TYPE":"U","NORAD_CAT_ID":68041,"ELEMENT_SET_NO":999,"REV_AT_EPOCH":584,"BSTAR":0.00040222823,"MEAN_MOTION_DOT":0.00061334,"MEAN_MOTION_DDOT":0},{"OBJECT_NAME":"STARLINK-36925","OBJECT_ID":"2026-041C","EPOCH":"2026-03-31T05:09:23.361408","MEAN_MOTION":15.75329043,"ECCENTRICITY":4.138e-5,"INCLINATION":53.1566,"RA_OF_ASC_NODE":314.9531,"ARG_OF_PERICENTER":76.7088,"MEAN_ANOMALY":283.3978,"EPHEMERIS_TYPE":0,"CLASSIFICATION_TYPE":"U","NORAD_CAT_ID":68042,"ELEMENT_SET_NO":999,"REV_AT_EPOCH":461,"BSTAR":0.0015463512,"MEAN_MOTION_DOT":0.00244338,"MEAN_MOTION_DDOT":0},{"OBJECT_NAME":"STARLINK-36902","OBJECT_ID":"2026-041D","EPOCH":"2026-03-31T00:00:02.000160","MEAN_MOTION":15.75226603,"ECCENTRICITY":0.00011336,"INCLINATION":53.1587,"RA_OF_ASC_NODE":315.4933,"ARG_OF_PERICENTER":45.2195,"MEAN_ANOMALY":75.3055,"EPHEMERIS_TYPE":0,"CLASSIFICATION_TYPE":"U","NORAD_CAT_ID":68043,"ELEMENT_SET_NO":999,"REV_AT_EPOCH":580,"BSTAR":-9.1117445e-5,"MEAN_MOTION_DOT":-0.00014575,"MEAN_MOTION_DDOT":0},{"OBJECT_NAME":"STARLINK-36966","OBJECT_ID":"2026-041E","EPOCH":"2026-03-30T03:09:42.002496","MEAN_MOTION":15.75294349,"ECCENTRICITY":9.312e-5,"INCLINATION":53.1585,"RA_OF_ASC_NODE":320.2848,"ARG_OF_PERICENTER":62.6191,"MEAN_ANOMALY":297.4924,"EPHEMERIS_TYPE":0,"CLASSIFICATION_TYPE":"U","NORAD_CAT_ID":68044,"ELEMENT_SET_NO":999,"REV_AT_EPOCH":444,"BSTAR":0.0013643822,"MEAN_MOTION_DOT":0.00214408,"MEAN_MOTION_DDOT":0},{"OBJECT_NAME":"STARLINK-36864","OBJECT_ID":"2026-041F","EPOCH":"2026-03-31T00:28:17.761728","MEAN_MOTION":15.75321172,"ECCENTRICITY":9.281e-5,"INCLINATION":53.1592,"RA_OF_ASC_NODE":315.8682,"ARG_OF_PERICENTER":93.68,"MEAN_ANOMALY":266.4326,"EPHEMERIS_TYPE":0,"CLASSIFICATION_TYPE":"U","NORAD_CAT_ID":68045,"ELEMENT_SET_NO":999,"REV_AT_EPOCH":458,"BSTAR":0.0014034152,"MEAN_MOTION_DOT":0.00220992,"MEAN_MOTION_DDOT":0},{"OBJECT_NAME":"STARLINK-36321","OBJECT_ID":"2026-041G","EPOCH":"2026-03-31T05:54:31.794912","MEAN_MOTION":15.75331398,"ECCENTRICITY":6.55e-5,"INCLINATION":53.1569,"RA_OF_ASC_NODE":314.4256,"ARG_OF_PERICENTER":44.6594,"MEAN_ANOMALY":315.4479,"EPHEMERIS_TYPE":0,"CLASSIFICATION_TYPE":"U","NORAD_CAT_ID":68046,"ELEMENT_SET_NO":999,"REV_AT_EPOCH":462,"BSTAR":0.0016648918,"MEAN_MOTION_DOT":0.00263754,"MEAN_MOTION_DDOT":0}]
